[{"OBJECT_NAME":"STARLINK-36677","OBJECT_ID":"2026-050M","EPOCH":"2026-03-26T19:30:56.052000","MEAN_MOTION":15.81013723,"ECCENTRICITY":5.75e-5,"INCLINATION":53.159,"RA_OF_ASC_NODE":195.9272,"ARG_OF_PERICENTER":179.1743,"MEAN_ANOMALY":180.9281,"EPHEMERIS_TYPE":0,"CLASSIFICATION_TYPE":"U","NORAD_CAT_ID":68178,"ELEMENT_SET_NO":999,"REV_AT_EPOCH":318,"BSTAR":0.0017062,"MEAN_MOTION_DOT":0.0035245,"MEAN_MOTION_DDOT":0},{"OBJECT_NAME":"STARLINK-37052","OBJECT_ID":"2026-050N","EPOCH":"2026-03-26T19:29:51.317664","MEAN_MOTION":15.81025001,"ECCENTRICITY":7.37e-5,"INCLINATION":53.1593,"RA_OF_ASC_NODE":195.9233,"ARG_OF_PERICENTER":114.9615,"MEAN_ANOMALY":245.1485,"EPHEMERIS_TYPE":0,"CLASSIFICATION_TYPE":"U","NORAD_CAT_ID":68179,"ELEMENT_SET_NO":999,"REV_AT_EPOCH":318,"BSTAR":0.0015968,"MEAN_MOTION_DOT":0.00329064,"MEAN_MOTION_DDOT":0},{"OBJECT_NAME":"STARLINK-37035","OBJECT_ID":"2026-050P","EPOCH":"2026-03-26T17:57:44.635392","MEAN_MOTION":15.80999319,"ECCENTRICITY":3.23e-5,"INCLINATION":53.1594,"RA_OF_ASC_NODE":196.235,"ARG_OF_PERICENTER":59.0573,"MEAN_ANOMALY":301.0482,"EPHEMERIS_TYPE":0,"CLASSIFICATION_TYPE":"U","NORAD_CAT_ID":68180,"ELEMENT_SET_NO":999,"REV_AT_EPOCH":317,"BSTAR":0.0015328,"MEAN_MOTION_DOT":0.00314964,"MEAN_MOTION_DDOT":0},{"OBJECT_NAME":"STARLINK-37032","OBJECT_ID":"2026-050Q","EPOCH":"2026-03-26T17:56:40.029792","MEAN_MOTION":15.80945685,"ECCENTRICITY":8.53e-5,"INCLINATION":53.1592,"RA_OF_ASC_NODE":196.2296,"ARG_OF_PERICENTER":105.2501,"MEAN_ANOMALY":254.8616,"EPHEMERIS_TYPE":0,"CLASSIFICATION_TYPE":"U","NORAD_CAT_ID":68181,"ELEMENT_SET_NO":999,"REV_AT_EPOCH":317,"BSTAR":0.00093575,"MEAN_MOTION_DOT":0.00188711,"MEAN_MOTION_DDOT":0},{"OBJECT_NAME":"STARLINK-37082","OBJECT_ID":"2026-050R","EPOCH":"2026-03-26T17:55:35.411232","MEAN_MOTION":15.80941523,"ECCENTRICITY":0.0001191,"INCLINATION":53.1593,"RA_OF_ASC_NODE":196.2248,"ARG_OF_PERICENTER":81.7316,"MEAN_ANOMALY":278.3841,"EPHEMERIS_TYPE":0,"CLASSIFICATION_TYPE":"U","NORAD_CAT_ID":68182,"ELEMENT_SET_NO":999,"REV_AT_EPOCH":317,"BSTAR":0.00092846,"MEAN_MOTION_DOT":0.00187163,"MEAN_MOTION_DDOT":0},{"OBJECT_NAME":"STARLINK-37102","OBJECT_ID":"2026-050S","EPOCH":"2026-03-26T19:25:31.956960","MEAN_MOTION":15.81049786,"ECCENTRICITY":4.55e-5,"INCLINATION":53.1592,"RA_OF_ASC_NODE":195.9028,"ARG_OF_PERICENTER":102.1055,"MEAN_ANOMALY":258.0019,"EPHEMERIS_TYPE":0,"CLASSIFICATION_TYPE":"U","NORAD_CAT_ID":68183,"ELEMENT_SET_NO":999,"REV_AT_EPOCH":318,"BSTAR":0.0018822,"MEAN_MOTION_DOT":0.00391317,"MEAN_MOTION_DDOT":0},{"OBJECT_NAME":"STARLINK-36964","OBJECT_ID":"2026-050T","EPOCH":"2026-03-26T19:24:27.353088","MEAN_MOTION":15.81000723,"ECCENTRICITY":4.22e-5,"INCLINATION":53.1589,"RA_OF_ASC_NODE":195.8978,"ARG_OF_PERICENTER":102.86,"MEAN_ANOMALY":257.247,"EPHEMERIS_TYPE":0,"CLASSIFICATION_TYPE":"U","NORAD_CAT_ID":68184,"ELEMENT_SET_NO":999,"REV_AT_EPOCH":318,"BSTAR":0.0014001,"MEAN_MOTION_DOT":0.00286713,"MEAN_MOTION_DDOT":0},{"OBJECT_NAME":"STARLINK-37061","OBJECT_ID":"2026-050U","EPOCH":"2026-03-26T19:23:22.821792","MEAN_MOTION":15.80972928,"ECCENTRICITY":7.41e-5,"INCLINATION":53.1593,"RA_OF_ASC_NODE":195.8929,"ARG_OF_PERICENTER":94.5387,"MEAN_ANOMALY":265.5721,"EPHEMERIS_TYPE":0,"CLASSIFICATION_TYPE":"U","NORAD_CAT_ID":68185,"ELEMENT_SET_NO":999,"REV_AT_EPOCH":318,"BSTAR":0.0011232,"MEAN_MOTION_DOT":0.00227975,"MEAN_MOTION_DDOT":0},{"OBJECT_NAME":"STARLINK-37079","OBJECT_ID":"2026-050V","EPOCH":"2026-03-26T19:22:17.852448","MEAN_MOTION":15.80983055,"ECCENTRICITY":8.15e-5,"INCLINATION":53.1596,"RA_OF_ASC_NODE":195.8877,"ARG_OF_PERICENTER":88.8084,"MEAN_ANOMALY":271.3032,"EPHEMERIS_TYPE":0,"CLASSIFICATION_TYPE":"U","NORAD_CAT_ID":68186,"ELEMENT_SET_NO":999,"REV_AT_EPOCH":318,"BSTAR":0.0012399,"MEAN_MOTION_DOT":0.00252599,"MEAN_MOTION_DDOT":0},{"OBJECT_NAME":"STARLINK-37006","OBJECT_ID":"2026-050W","EPOCH":"2026-03-26T19:21:12.795840","MEAN_MOTION":15.81013939,"ECCENTRICITY":4.39e-5,"INCLINATION":53.1593,"RA_OF_ASC_NODE":195.8831,"ARG_OF_PERICENTER":125.8144,"MEAN_ANOMALY":234.2919,"EPHEMERIS_TYPE":0,"CLASSIFICATION_TYPE":"U","NORAD_CAT_ID":68187,"ELEMENT_SET_NO":999,"REV_AT_EPOCH":318,"BSTAR":0.0015322,"MEAN_MOTION_DOT":0.0031506,"MEAN_MOTION_DDOT":0},{"OBJECT_NAME":"STARLINK-36340","OBJECT_ID":"2026-050X","EPOCH":"2026-03-26T19:20:08.041632","MEAN_MOTION":15.80997885,"ECCENTRICITY":5.99e-5,"INCLINATION":53.1591,"RA_OF_ASC_NODE":195.8778,"ARG_OF_PERICENTER":118.4865,"MEAN_ANOMALY":241.6218,"EPHEMERIS_TYPE":0,"CLASSIFICATION_TYPE":"U","NORAD_CAT_ID":68188,"ELEMENT_SET_NO":999,"REV_AT_EPOCH":308,"BSTAR":0.0013437,"MEAN_MOTION_DOT":0.00274697,"MEAN_MOTION_DDOT":0},{"OBJECT_NAME":"STARLINK-36305","OBJECT_ID":"2026-050Y","EPOCH":"2026-03-26T19:19:03.379872","MEAN_MOTION":15.8096929,"ECCENTRICITY":0.000127,"INCLINATION":53.1591,"RA_OF_ASC_NODE":195.8729,"ARG_OF_PERICENTER":161.2674,"MEAN_ANOMALY":198.8396,"EPHEMERIS_TYPE":0,"CLASSIFICATION_TYPE":"U","NORAD_CAT_ID":68189,"ELEMENT_SET_NO":999,"REV_AT_EPOCH":308,"BSTAR":0.0010991,"MEAN_MOTION_DOT":0.00222902,"MEAN_MOTION_DDOT":0},{"OBJECT_NAME":"STARLINK-37071","OBJECT_ID":"2026-050Z","EPOCH":"2026-03-26T19:16:53.541408","MEAN_MOTION":15.80978118,"ECCENTRICITY":8.73e-5,"INCLINATION":53.1593,"RA_OF_ASC_NODE":195.8626,"ARG_OF_PERICENTER":157.5942,"MEAN_ANOMALY":202.5119,"EPHEMERIS_TYPE":0,"CLASSIFICATION_TYPE":"U","NORAD_CAT_ID":68190,"ELEMENT_SET_NO":999,"REV_AT_EPOCH":318,"BSTAR":0.0010694,"MEAN_MOTION_DOT":0.00216798,"MEAN_MOTION_DDOT":0},{"OBJECT_NAME":"STARLINK-37091","OBJECT_ID":"2026-050AA","EPOCH":"2026-03-26T19:15:48.825216","MEAN_MOTION":15.81012446,"ECCENTRICITY":7.08e-5,"INCLINATION":53.159,"RA_OF_ASC_NODE":195.8571,"ARG_OF_PERICENTER":54.8014,"MEAN_ANOMALY":305.3075,"EPHEMERIS_TYPE":0,"CLASSIFICATION_TYPE":"U","NORAD_CAT_ID":68191,"ELEMENT_SET_NO":999,"REV_AT_EPOCH":318,"BSTAR":0.0015158,"MEAN_MOTION_DOT":0.0031152,"MEAN_MOTION_DDOT":0},{"OBJECT_NAME":"STARLINK-37098","OBJECT_ID":"2026-050AB","EPOCH":"2026-03-26T19:14:44.215296","MEAN_MOTION":15.80997044,"ECCENTRICITY":0.0001071,"INCLINATION":53.1594,"RA_OF_ASC_NODE":195.8523,"ARG_OF_PERICENTER":97.8005,"MEAN_ANOMALY":262.314,"EPHEMERIS_TYPE":0,"CLASSIFICATION_TYPE":"U","NORAD_CAT_ID":68192,"ELEMENT_SET_NO":999,"REV_AT_EPOCH":318,"BSTAR":0.0014033,"MEAN_MOTION_DOT":0.00287326,"MEAN_MOTION_DDOT":0},{"OBJECT_NAME":"STARLINK-37090","OBJECT_ID":"2026-050AC","EPOCH":"2026-03-26T19:12:34.995456","MEAN_MOTION":15.81086794,"ECCENTRICITY":0.0001127,"INCLINATION":53.1589,"RA_OF_ASC_NODE":195.8412,"ARG_OF_PERICENTER":357.176,"MEAN_ANOMALY":2.9256,"EPHEMERIS_TYPE":0,"CLASSIFICATION_TYPE":"U","NORAD_CAT_ID":68193,"ELEMENT_SET_NO":999,"REV_AT_EPOCH":318,"BSTAR":0.0021559,"MEAN_MOTION_DOT":0.00452301,"MEAN_MOTION_DDOT":0},{"OBJECT_NAME":"STARLINK-37093","OBJECT_ID":"2026-050AD","EPOCH":"2026-03-26T19:17:58.229952","MEAN_MOTION":15.81007014,"ECCENTRICITY":6.58e-5,"INCLINATION":53.1596,"RA_OF_ASC_NODE":195.8669,"ARG_OF_PERICENTER":64.9159,"MEAN_ANOMALY":295.1932,"EPHEMERIS_TYPE":0,"CLASSIFICATION_TYPE":"U","NORAD_CAT_ID":68194,"ELEMENT_SET_NO":999,"REV_AT_EPOCH":318,"BSTAR":0.0012389,"MEAN_MOTION_DOT":0.00252669,"MEAN_MOTION_DDOT":0}]
